{
 "type": "FeatureCollection",
 "name": "junctions_within_200m",
 "crs": {
  "type": "name",
  "properties": {
   "name": "urn:ogc:def:crs:EPSG::2039"
  }
 },
 "features": [
  {
   "type": "Feature",
   "properties": {
    "fid": 1600,
    "DISTRICODE": 4.0,
    "DISTRICT": "מרכז",
    "X": 183161.583,
    "Y": 656458.4313,
    "DOMAIN": "בין עירוני",
    "JUNCTION": "צומת בית דגן דרומי",
    "STREETROAD": "רמפה 412 / רמפה 44",
    "CITY": "ראשון לציון",
    "CITYCODE": 8300.0,
    "TRAFAUTH": "נתיבי ישראל",
    "AUTHCODE": "10101",
    "AYALON Code": null,
    "ID": null,
    "רשות מקומית": null,
    "רשות תמרור": null,
    "Mantam": 0,
    "Status": null,
    "name": null,
    "main street": null,
    "stree_1": null,
    "stree_2": null,
    "street_3": null,
    "street_4": null,
    "nataz": null,
    "fast2city": null,
    "blue_line": null,
    "red_line": null,
    "green_line": null,
    "purple_line": null,
    "brown_line": null,
    "DAN_BICYCLE": null,
    "no_project": null,
    "Metronit": null,
    "Auth Code": null,
    "Fast2City Code": null,
    "DESCRIPTIO": null,
    "Green_Wave_ID": null,
    "תאריך עדכון אחרון": null,
    "CLUSTER_ID": null,
    "CLUSTER_SIZE": null,
    "layer": "צמתים מרומזרים — TRAFFIC_LIGHT_JNCTN.shp",
    "path": "/vsizip/M:/Tnua/3119/Documents/TR/מיפוי מרכז/GIS/BACKGROUND/צמתים מרומזרים.zip",
    "CLUSTER_ID_2": 2396,
    "CLUSTER_SIZE_2": 1,
    "Existing bus lane": 1,
    "Planned bus lane": 0,
    "Interurban bus lane": 0,
    "Additional bus lanes": 0,
    "Metro line": 0,
    "FUNC_min": 43.0,
    "Road Hierachy": "דרך אזורית",
    "Terminals": 0,
    "TUEDEP_sum": 711.0,
    "Rail-affected intersection": 0,
    "lrt-station affected intersection": 0,
    "LRT- status": null,
    "LRT": 0,
    "metro line station - affected intersection": 0,
    "BRT - status": null,
    "BRT": "0",
    "No. of Bus Lane Directions": 1.0,
    "NODE_ID": 150760.0,
    "node_dist_m": 61.8560198649442,
    "entering_volume": 844.04504,
    "n_incoming_links": 2.0,
    "nearest_street": null,
    "daily_bus_passes": 711.0,
    "n_distinct_lines": 37,
    "Rail-affected intersection (network)": 0,
    "lrt-station affected intersection (network)": 0,
    "metro line station - affected intersection (network)": 0,
    "Terminals (network)": 0,
    "score_nataz": 2000,
    "score_metro": 0,
    "score_brt": 0,
    "score_terminal": 0,
    "score_rail": 0,
    "score_lrt": 0,
    "score_bus_passes": 711.0,
    "Bus Lane Directions (capped at 2)": 1.0,
    "score_directions": 250.0,
    "score_road": 1800.0,
    "score_entering_volume": 33.7618016,
    "TOTAL_SCORE": 4794.7618016,
    "Vx_neighbors_included": "FID=2475 (r=98m, score=4992)",
    "junction_name": "צומת בית דגן דרומי",
    "streets": "רמפה 412 / רמפה 44",
    "city_clean": "ראשון לציון",
    "status_clean": "",
    "nearest_brt_fid": 2475,
    "nearest_brt_name": "צומת בית דגן",
    "nearest_brt_line": "כחול",
    "dist_to_nearest_brt_m": 100.5,
    "n_brt_within_200m": 1,
    "brt_fids_within_200m": "2475"
   },
   "geometry": {
    "type": "Point",
    "coordinates": [
     183161.583,
     656458.4313
    ]
   }
  },
  {
   "type": "Feature",
   "properties": {
    "fid": 1601,
    "DISTRICODE": 4.0,
    "DISTRICT": "מרכז",
    "X": 183151.7747,
    "Y": 656676.1435,
    "DOMAIN": "בין עירוני",
    "JUNCTION": "צומת בית דגן צפוני",
    "STREETROAD": "השבעה (44) / רמפה 412",
    "CITY": "ראשון לציון",
    "CITYCODE": 8300.0,
    "TRAFAUTH": "נתיבי ישראל",
    "AUTHCODE": "10101",
    "AYALON Code": null,
    "ID": null,
    "רשות מקומית": null,
    "רשות תמרור": null,
    "Mantam": 0,
    "Status": null,
    "name": null,
    "main street": null,
    "stree_1": null,
    "stree_2": null,
    "street_3": null,
    "street_4": null,
    "nataz": null,
    "fast2city": null,
    "blue_line": null,
    "red_line": null,
    "green_line": null,
    "purple_line": null,
    "brown_line": null,
    "DAN_BICYCLE": null,
    "no_project": null,
    "Metronit": null,
    "Auth Code": null,
    "Fast2City Code": null,
    "DESCRIPTIO": null,
    "Green_Wave_ID": null,
    "תאריך עדכון אחרון": null,
    "CLUSTER_ID": null,
    "CLUSTER_SIZE": null,
    "layer": "צמתים מרומזרים — TRAFFIC_LIGHT_JNCTN.shp",
    "path": "/vsizip/M:/Tnua/3119/Documents/TR/מיפוי מרכז/GIS/BACKGROUND/צמתים מרומזרים.zip",
    "CLUSTER_ID_2": 2398,
    "CLUSTER_SIZE_2": 1,
    "Existing bus lane": 1,
    "Planned bus lane": 0,
    "Interurban bus lane": 0,
    "Additional bus lanes": 0,
    "Metro line": 0,
    "FUNC_min": 42.0,
    "Road Hierachy": "דרך ארצית",
    "Terminals": 0,
    "TUEDEP_sum": 1233.0,
    "Rail-affected intersection": 0,
    "lrt-station affected intersection": 0,
    "LRT- status": null,
    "LRT": 0,
    "metro line station - affected intersection": 0,
    "BRT - status": null,
    "BRT": "0",
    "No. of Bus Lane Directions": 2.0,
    "NODE_ID": 150780.0,
    "node_dist_m": 0.0,
    "entering_volume": 1225.6895457,
    "n_incoming_links": 2.0,
    "nearest_street": null,
    "daily_bus_passes": 1233.0,
    "n_distinct_lines": 77,
    "Rail-affected intersection (network)": 0,
    "lrt-station affected intersection (network)": 0,
    "metro line station - affected intersection (network)": 0,
    "Terminals (network)": 0,
    "score_nataz": 2000,
    "score_metro": 0,
    "score_brt": 0,
    "score_terminal": 0,
    "score_rail": 0,
    "score_lrt": 0,
    "score_bus_passes": 1233.0,
    "Bus Lane Directions (capped at 2)": 2.0,
    "score_directions": 500.0,
    "score_road": 2100.0,
    "score_entering_volume": 49.027581828,
    "TOTAL_SCORE": 5882.027581828,
    "Vx_neighbors_included": "FID=2475 (r=187m, score=4992)",
    "junction_name": "צומת בית דגן צפוני",
    "streets": "השבעה (44) / רמפה 412",
    "city_clean": "ראשון לציון",
    "status_clean": "",
    "nearest_brt_fid": 2475,
    "nearest_brt_name": "צומת בית דגן",
    "nearest_brt_line": "כחול",
    "dist_to_nearest_brt_m": 175.7,
    "n_brt_within_200m": 1,
    "brt_fids_within_200m": "2475"
   },
   "geometry": {
    "type": "Point",
    "coordinates": [
     183151.7747,
     656676.1435
    ]
   }
  },
  {
   "type": "Feature",
   "properties": {
    "fid": 1614,
    "DISTRICODE": 4.0,
    "DISTRICT": "מרכז",
    "X": 181747.3938,
    "Y": 646454.1248,
    "DOMAIN": "עירוני",
    "JUNCTION": null,
    "STREETROAD": "ד''ר אריה שושן / חיים פקריס / פרופ' הלל וחנן אופנהיימר",
    "CITY": "רחובות",
    "CITYCODE": 8400.0,
    "TRAFAUTH": null,
    "AUTHCODE": null,
    "AYALON Code": null,
    "ID": null,
    "רשות מקומית": null,
    "רשות תמרור": null,
    "Mantam": 0,
    "Status": null,
    "name": null,
    "main street": null,
    "stree_1": null,
    "stree_2": null,
    "street_3": null,
    "street_4": null,
    "nataz": null,
    "fast2city": null,
    "blue_line": null,
    "red_line": null,
    "green_line": null,
    "purple_line": null,
    "brown_line": null,
    "DAN_BICYCLE": null,
    "no_project": null,
    "Metronit": null,
    "Auth Code": null,
    "Fast2City Code": null,
    "DESCRIPTIO": null,
    "Green_Wave_ID": null,
    "תאריך עדכון אחרון": null,
    "CLUSTER_ID": null,
    "CLUSTER_SIZE": null,
    "layer": "צמתים מרומזרים — TRAFFIC_LIGHT_JNCTN.shp",
    "path": "/vsizip/M:/Tnua/3119/Documents/TR/מיפוי מרכז/GIS/BACKGROUND/צמתים מרומזרים.zip",
    "CLUSTER_ID_2": 2455,
    "CLUSTER_SIZE_2": 1,
    "Existing bus lane": 0,
    "Planned bus lane": 0,
    "Interurban bus lane": 0,
    "Additional bus lanes": 0,
    "Metro line": 0,
    "FUNC_min": 46.0,
    "Road Hierachy": "דרך עורקית",
    "Terminals": 1,
    "TUEDEP_sum": 627.0,
    "Rail-affected intersection": 1,
    "lrt-station affected intersection": 0,
    "LRT- status": null,
    "LRT": 0,
    "metro line station - affected intersection": 1,
    "BRT - status": null,
    "BRT": "0",
    "No. of Bus Lane Directions": null,
    "NODE_ID": 161034.0,
    "node_dist_m": 0.0,
    "entering_volume": 3010.477293,
    "n_incoming_links": 3.0,
    "nearest_street": "אופנהיימר",
    "daily_bus_passes": 627.0,
    "n_distinct_lines": 45,
    "Rail-affected intersection (network)": 1,
    "lrt-station affected intersection (network)": 0,
    "metro line station - affected intersection (network)": 0,
    "Terminals (network)": 1,
    "score_nataz": 0,
    "score_metro": 0,
    "score_brt": 0,
    "score_terminal": 2200,
    "score_rail": 8000,
    "score_lrt": 0,
    "score_bus_passes": 627.0,
    "Bus Lane Directions (capped at 2)": 0.0,
    "score_directions": 0.0,
    "score_road": 1800.0,
    "score_entering_volume": 120.41909172,
    "TOTAL_SCORE": 12747.41909172,
    "Vx_neighbors_included": "FID=2515 (r=140m, score=15546)",
    "junction_name": "ד''ר אריה שושן / חיים פקריס / פרופ' הלל וחנן אופנהיימר",
    "streets": "ד''ר אריה שושן / חיים פקריס / פרופ' הלל וחנן אופנהיימר",
    "city_clean": "רחובות",
    "status_clean": "",
    "nearest_brt_fid": 2515,
    "nearest_brt_name": "הרצל - אופנהיימר",
    "nearest_brt_line": "כחול",
    "dist_to_nearest_brt_m": 137.4,
    "n_brt_within_200m": 1,
    "brt_fids_within_200m": "2515"
   },
   "geometry": {
    "type": "Point",
    "coordinates": [
     181747.3938,
     646454.1248
    ]
   }
  },
  {
   "type": "Feature",
   "properties": {
    "fid": 2388,
    "DISTRICODE": 4.0,
    "DISTRICT": "מרכז,",
    "X": 181196.2353,
    "Y": 652569.8276,
    "DOMAIN": "עירוני,",
    "JUNCTION": ",",
    "STREETROAD": "זאב ז'בוטינסקי (441) / עין הקורא / קרית ספר,",
    "CITY": "ראשון לציון,",
    "CITYCODE": 8300.0,
    "TRAFAUTH": ",",
    "AUTHCODE": null,
    "AYALON Code": 11035.0,
    "ID": 658.0,
    "רשות מקומית": ",ראשון לציון",
    "רשות תמרור": ",ראשון לציון",
    "Mantam": 0,
    "Status": ",קיים",
    "name": ",זבוטינסקי עין הקורא",
    "main street": ",ז'בוטינסקי",
    "stree_1": ",עין הקורא",
    "stree_2": ",קרית ספר",
    "street_3": ",",
    "street_4": ",",
    "nataz": ",לא",
    "fast2city": ",לא",
    "blue_line": ",לא",
    "red_line": ",לא",
    "green_line": ",לא",
    "purple_line": ",לא",
    "brown_line": ",לא",
    "DAN_BICYCLE": ",לא",
    "no_project": ",כן",
    "Metronit": ",לא",
    "Auth Code": ",",
    "Fast2City Code": ",",
    "DESCRIPTIO": ",זבוטינסקי עין הקורא",
    "Green_Wave_ID": null,
    "תאריך עדכון אחרון": "07/06/2020 00:00",
    "CLUSTER_ID": 605.0,
    "CLUSTER_SIZE": 1.0,
    "layer": "צמתים מרומזרים — TRAFFIC_LIGHT_JNCTN.shp,רמזורי נתיבי איילון- סופי",
    "path": "/vsizip/M:/Tnua/3119/Documents/TR/מיפוי מרכז/GIS/BACKGROUND/צמתים מרומזרים.zip,M:\\Tnua\\3119\\Documents\\TR\\מיפוי מרכז\\GIS\\MERGED\\רמזורי נתיבי איילון- סופי.gpkg|layername=רמזורי נתיבי איילון- סופי",
    "CLUSTER_ID_2": 2285,
    "CLUSTER_SIZE_2": 2,
    "Existing bus lane": 0,
    "Planned bus lane": 1,
    "Interurban bus lane": 0,
    "Additional bus lanes": 0,
    "Metro line": 1,
    "FUNC_min": 43.0,
    "Road Hierachy": "דרך אזורית",
    "Terminals": 0,
    "TUEDEP_sum": 799.0,
    "Rail-affected intersection": 0,
    "lrt-station affected intersection": 0,
    "LRT- status": null,
    "LRT": 0,
    "metro line station - affected intersection": 1,
    "BRT - status": null,
    "BRT": "0",
    "No. of Bus Lane Directions": 2.0,
    "NODE_ID": 150050.0,
    "node_dist_m": 0.0,
    "entering_volume": 2592.540078,
    "n_incoming_links": 2.0,
    "nearest_street": null,
    "daily_bus_passes": 799.0,
    "n_distinct_lines": 26,
    "Rail-affected intersection (network)": 0,
    "lrt-station affected intersection (network)": 0,
    "metro line station - affected intersection (network)": 1,
    "Terminals (network)": 0,
    "score_nataz": 1000,
    "score_metro": 4000,
    "score_brt": 0,
    "score_terminal": 0,
    "score_rail": 0,
    "score_lrt": 0,
    "score_bus_passes": 799.0,
    "Bus Lane Directions (capped at 2)": 2.0,
    "score_directions": 500.0,
    "score_road": 1800.0,
    "score_entering_volume": 103.70160312,
    "TOTAL_SCORE": 8202.70160312,
    "Vx_neighbors_included": "FID=2389 (r=190m, score=9441); FID=2387 (r=167m, score=7889)",
    "junction_name": "זבוטינסקי עין הקורא",
    "streets": "ז'בוטינסקי / עין הקורא / קרית ספר",
    "city_clean": "ראשון לציון",
    "status_clean": "קיים",
    "nearest_brt_fid": 2389,
    "nearest_brt_name": "זבוטינסקי רוטשילד",
    "nearest_brt_line": "חום (שלב א')",
    "dist_to_nearest_brt_m": 189.7,
    "n_brt_within_200m": 1,
    "brt_fids_within_200m": "2389"
   },
   "geometry": {
    "type": "Point",
    "coordinates": [
     181196.2353,
     652569.8276
    ]
   }
  },
  {
   "type": "Feature",
   "properties": {
    "fid": 2390,
    "DISTRICODE": 4.0,
    "DISTRICT": "מרכז,",
    "X": 181229.129,
    "Y": 652291.1494,
    "DOMAIN": "עירוני,",
    "JUNCTION": ",",
    "STREETROAD": "גרינבוים / התומר / זאב ז'בוטינסקי (441),",
    "CITY": "ראשון לציון,",
    "CITYCODE": 8300.0,
    "TRAFAUTH": ",",
    "AUTHCODE": null,
    "AYALON Code": 11037.0,
    "ID": 660.0,
    "רשות מקומית": ",ראשון לציון",
    "רשות תמרור": ",ראשון לציון",
    "Mantam": 0,
    "Status": ",קיים",
    "name": ",זבוטינסקי גרינבוים",
    "main street": ",ז'בוטינסקי",
    "stree_1": ",גרינבוים",
    "stree_2": ",התומר",
    "street_3": ",",
    "street_4": ",",
    "nataz": ",לא",
    "fast2city": ",לא",
    "blue_line": ",לא",
    "red_line": ",לא",
    "green_line": ",לא",
    "purple_line": ",לא",
    "brown_line": ",לא",
    "DAN_BICYCLE": ",לא",
    "no_project": ",כן",
    "Metronit": ",לא",
    "Auth Code": ",",
    "Fast2City Code": ",",
    "DESCRIPTIO": ",זבוטינסקי גרינבוים",
    "Green_Wave_ID": null,
    "תאריך עדכון אחרון": "07/06/2020 00:00",
    "CLUSTER_ID": 607.0,
    "CLUSTER_SIZE": 1.0,
    "layer": "צמתים מרומזרים — TRAFFIC_LIGHT_JNCTN.shp,רמזורי נתיבי איילון- סופי",
    "path": "/vsizip/M:/Tnua/3119/Documents/TR/מיפוי מרכז/GIS/BACKGROUND/צמתים מרומזרים.zip,M:\\Tnua\\3119\\Documents\\TR\\מיפוי מרכז\\GIS\\MERGED\\רמזורי נתיבי איילון- סופי.gpkg|layername=רמזורי נתיבי איילון- סופי",
    "CLUSTER_ID_2": 2283,
    "CLUSTER_SIZE_2": 2,
    "Existing bus lane": 0,
    "Planned bus lane": 1,
    "Interurban bus lane": 0,
    "Additional bus lanes": 0,
    "Metro line": 1,
    "FUNC_min": 43.0,
    "Road Hierachy": "דרך אזורית",
    "Terminals": 0,
    "TUEDEP_sum": 1190.0,
    "Rail-affected intersection": 0,
    "lrt-station affected intersection": 0,
    "LRT- status": null,
    "LRT": 0,
    "metro line station - affected intersection": 1,
    "BRT - status": null,
    "BRT": "0",
    "No. of Bus Lane Directions": 2.0,
    "NODE_ID": null,
    "node_dist_m": null,
    "entering_volume": null,
    "n_incoming_links": null,
    "nearest_street": null,
    "daily_bus_passes": 1190.0,
    "n_distinct_lines": 32,
    "Rail-affected intersection (network)": 0,
    "lrt-station affected intersection (network)": 0,
    "metro line station - affected intersection (network)": 1,
    "Terminals (network)": 0,
    "score_nataz": 1000,
    "score_metro": 4000,
    "score_brt": 0,
    "score_terminal": 0,
    "score_rail": 0,
    "score_lrt": 0,
    "score_bus_passes": 1190.0,
    "Bus Lane Directions (capped at 2)": 2.0,
    "score_directions": 500.0,
    "score_road": 1800.0,
    "score_entering_volume": 0.0,
    "TOTAL_SCORE": 8490.0,
    "Vx_neighbors_included": "FID=2389 (r=101m, score=9441)",
    "junction_name": "זבוטינסקי גרינבוים",
    "streets": "ז'בוטינסקי / גרינבוים / התומר",
    "city_clean": "ראשון לציון",
    "status_clean": "קיים",
    "nearest_brt_fid": 2389,
    "nearest_brt_name": "זבוטינסקי רוטשילד",
    "nearest_brt_line": "חום (שלב א')",
    "dist_to_nearest_brt_m": 91.0,
    "n_brt_within_200m": 1,
    "brt_fids_within_200m": "2389"
   },
   "geometry": {
    "type": "Point",
    "coordinates": [
     181229.129,
     652291.1494
    ]
   }
  },
  {
   "type": "Feature",
   "properties": {
    "fid": 2391,
    "DISTRICODE": 4.0,
    "DISTRICT": "מרכז,",
    "X": 181291.7746,
    "Y": 652055.2746,
    "DOMAIN": "עירוני,",
    "JUNCTION": ",",
    "STREETROAD": "זאב ז'בוטינסקי (441) / עולי הגרדום,",
    "CITY": "ראשון לציון,",
    "CITYCODE": 8300.0,
    "TRAFAUTH": ",",
    "AUTHCODE": null,
    "AYALON Code": 11038.0,
    "ID": 661.0,
    "רשות מקומית": ",ראשון לציון",
    "רשות תמרור": ",ראשון לציון",
    "Mantam": 0,
    "Status": ",קיים",
    "name": ",זבוטינסקי עולי הגרדום",
    "main street": ",ז'בוטינסקי",
    "stree_1": ",עולי הגרדום",
    "stree_2": ",",
    "street_3": ",",
    "street_4": ",",
    "nataz": ",לא",
    "fast2city": ",לא",
    "blue_line": ",לא",
    "red_line": ",לא",
    "green_line": ",לא",
    "purple_line": ",לא",
    "brown_line": ",לא",
    "DAN_BICYCLE": ",לא",
    "no_project": ",כן",
    "Metronit": ",לא",
    "Auth Code": ",",
    "Fast2City Code": ",",
    "DESCRIPTIO": ",זבוטינסקי עולי הגרדום",
    "Green_Wave_ID": null,
    "תאריך עדכון אחרון": "07/06/2020 00:00",
    "CLUSTER_ID": 608.0,
    "CLUSTER_SIZE": 1.0,
    "layer": "צמתים מרומזרים — TRAFFIC_LIGHT_JNCTN.shp,רמזורי נתיבי איילון- סופי",
    "path": "/vsizip/M:/Tnua/3119/Documents/TR/מיפוי מרכז/GIS/BACKGROUND/צמתים מרומזרים.zip,M:\\Tnua\\3119\\Documents\\TR\\מיפוי מרכז\\GIS\\MERGED\\רמזורי נתיבי איילון- סופי.gpkg|layername=רמזורי נתיבי איילון- סופי",
    "CLUSTER_ID_2": 2313,
    "CLUSTER_SIZE_2": 2,
    "Existing bus lane": 0,
    "Planned bus lane": 1,
    "Interurban bus lane": 0,
    "Additional bus lanes": 0,
    "Metro line": 1,
    "FUNC_min": 43.0,
    "Road Hierachy": "דרך אזורית",
    "Terminals": 0,
    "TUEDEP_sum": 622.0,
    "Rail-affected intersection": 0,
    "lrt-station affected intersection": 0,
    "LRT- status": null,
    "LRT": 0,
    "metro line station - affected intersection": 1,
    "BRT - status": null,
    "BRT": "0",
    "No. of Bus Lane Directions": 2.0,
    "NODE_ID": 150043.0,
    "node_dist_m": 0.0,
    "entering_volume": 933.801542,
    "n_incoming_links": 2.0,
    "nearest_street": "ז'בוטינסקי",
    "daily_bus_passes": 622.0,
    "n_distinct_lines": 20,
    "Rail-affected intersection (network)": 0,
    "lrt-station affected intersection (network)": 0,
    "metro line station - affected intersection (network)": 1,
    "Terminals (network)": 0,
    "score_nataz": 1000,
    "score_metro": 4000,
    "score_brt": 0,
    "score_terminal": 0,
    "score_rail": 0,
    "score_lrt": 0,
    "score_bus_passes": 622.0,
    "Bus Lane Directions (capped at 2)": 2.0,
    "score_directions": 500.0,
    "score_road": 1800.0,
    "score_entering_volume": 37.35206168,
    "TOTAL_SCORE": 7959.35206168,
    "Vx_neighbors_included": "FID=2461 (r=191m, score=4931)",
    "junction_name": "זבוטינסקי עולי הגרדום",
    "streets": "ז'בוטינסקי / עולי הגרדום",
    "city_clean": "ראשון לציון",
    "status_clean": "קיים",
    "nearest_brt_fid": 2460,
    "nearest_brt_name": "הרצל קרון אהרון",
    "nearest_brt_line": "כחול",
    "dist_to_nearest_brt_m": 185.0,
    "n_brt_within_200m": 2,
    "brt_fids_within_200m": "2460, 2461"
   },
   "geometry": {
    "type": "Point",
    "coordinates": [
     181291.7746,
     652055.2746
    ]
   }
  },
  {
   "type": "Feature",
   "properties": {
    "fid": 2478,
    "DISTRICODE": 4.0,
    "DISTRICT": "מרכז,",
    "X": 179263.3164,
    "Y": 653020.2585,
    "DOMAIN": "עירוני,",
    "JUNCTION": ",",
    "STREETROAD": "האלוף דוד מימון / התקומה / מיש''ר,",
    "CITY": "ראשון לציון,",
    "CITYCODE": 8300.0,
    "TRAFAUTH": ",",
    "AUTHCODE": null,
    "AYALON Code": 11125.0,
    "ID": 748.0,
    "רשות מקומית": ",ראשון לציון",
    "רשות תמרור": ",ראשון לציון",
    "Mantam": 0,
    "Status": ",בתכנון",
    "name": ",התקומה - מיש\"ר",
    "main street": ",שדרות התקומה",
    "stree_1": ",מיש\"ר",
    "stree_2": ",האלוף דוד",
    "street_3": ",",
    "street_4": ",",
    "nataz": ",לא",
    "fast2city": ",כן",
    "blue_line": ",לא",
    "red_line": ",לא",
    "green_line": ",לא",
    "purple_line": ",לא",
    "brown_line": ",לא",
    "DAN_BICYCLE": ",לא",
    "no_project": ",לא",
    "Metronit": ",לא",
    "Auth Code": ",",
    "Fast2City Code": ",RL05",
    "DESCRIPTIO": ",התקומה - מיש\"ר",
    "Green_Wave_ID": null,
    "תאריך עדכון אחרון": "07/06/2020 00:00",
    "CLUSTER_ID": 695.0,
    "CLUSTER_SIZE": 1.0,
    "layer": "צמתים מרומזרים — TRAFFIC_LIGHT_JNCTN.shp,רמזורי נתיבי איילון- סופי",
    "path": "/vsizip/M:/Tnua/3119/Documents/TR/מיפוי מרכז/GIS/BACKGROUND/צמתים מרומזרים.zip,M:\\Tnua\\3119\\Documents\\TR\\מיפוי מרכז\\GIS\\MERGED\\רמזורי נתיבי איילון- סופי.gpkg|layername=רמזורי נתיבי איילון- סופי",
    "CLUSTER_ID_2": 2268,
    "CLUSTER_SIZE_2": 2,
    "Existing bus lane": 1,
    "Planned bus lane": 1,
    "Interurban bus lane": 0,
    "Additional bus lanes": 0,
    "Metro line": 0,
    "FUNC_min": 46.0,
    "Road Hierachy": "דרך עורקית",
    "Terminals": 0,
    "TUEDEP_sum": 1213.0,
    "Rail-affected intersection": 0,
    "lrt-station affected intersection": 0,
    "LRT- status": null,
    "LRT": 0,
    "metro line station - affected intersection": 0,
    "BRT - status": null,
    "BRT": "0",
    "No. of Bus Lane Directions": 2.0,
    "NODE_ID": 152110.0,
    "node_dist_m": 0.0,
    "entering_volume": 2731.382876,
    "n_incoming_links": 4.0,
    "nearest_street": null,
    "daily_bus_passes": 1213.0,
    "n_distinct_lines": 31,
    "Rail-affected intersection (network)": 0,
    "lrt-station affected intersection (network)": 0,
    "metro line station - affected intersection (network)": 0,
    "Terminals (network)": 0,
    "score_nataz": 2000,
    "score_metro": 0,
    "score_brt": 0,
    "score_terminal": 0,
    "score_rail": 0,
    "score_lrt": 0,
    "score_bus_passes": 1213.0,
    "Bus Lane Directions (capped at 2)": 2.0,
    "score_directions": 500.0,
    "score_road": 1800.0,
    "score_entering_volume": 109.25531504,
    "TOTAL_SCORE": 5622.25531504,
    "Vx_neighbors_included": "FID=2453 (r=119m, score=4566); FID=2452 (r=129m, score=4571)",
    "junction_name": "התקומה - מיש\"ר",
    "streets": "שדרות התקומה / מיש\"ר / האלוף דוד",
    "city_clean": "ראשון לציון",
    "status_clean": "בתכנון",
    "nearest_brt_fid": 2452,
    "nearest_brt_name": "שדרות יצחק רבין חומה ומגדל",
    "nearest_brt_line": "חום (שלב א')",
    "dist_to_nearest_brt_m": 116.8,
    "n_brt_within_200m": 1,
    "brt_fids_within_200m": "2452"
   },
   "geometry": {
    "type": "Point",
    "coordinates": [
     179263.3164,
     653020.2585
    ]
   }
  },
  {
   "type": "Feature",
   "properties": {
    "fid": 2480,
    "DISTRICODE": 4.0,
    "DISTRICT": "מרכז,",
    "X": 183342.7895,
    "Y": 652309.1818,
    "DOMAIN": "עירוני,",
    "JUNCTION": ",",
    "STREETROAD": "חנה ומיכאל לוין / שמואל שרירא,",
    "CITY": "ראשון לציון,",
    "CITYCODE": 8300.0,
    "TRAFAUTH": ",",
    "AUTHCODE": null,
    "AYALON Code": 11127.0,
    "ID": 750.0,
    "רשות מקומית": ",ראשון לציון",
    "רשות תמרור": ",ראשון לציון",
    "Mantam": 0,
    "Status": ",קיים",
    "name": ",חנה ומיכאל לוין - שמואל שרירא",
    "main street": ",חנה ומיכאל לוין",
    "stree_1": ",שמואל שרירא",
    "stree_2": ",",
    "street_3": ",",
    "street_4": ",",
    "nataz": ",לא",
    "fast2city": ",לא",
    "blue_line": ",לא",
    "red_line": ",לא",
    "green_line": ",לא",
    "purple_line": ",לא",
    "brown_line": ",לא",
    "DAN_BICYCLE": ",לא",
    "no_project": ",כן",
    "Metronit": ",לא",
    "Auth Code": ",",
    "Fast2City Code": ",",
    "DESCRIPTIO": ",חנה ומיכאל לוין - שמואל שרירא",
    "Green_Wave_ID": null,
    "תאריך עדכון אחרון": "11/04/2021",
    "CLUSTER_ID": 697.0,
    "CLUSTER_SIZE": 1.0,
    "layer": "צמתים מרומזרים — TRAFFIC_LIGHT_JNCTN.shp,רמזורי נתיבי איילון- סופי",
    "path": "/vsizip/M:/Tnua/3119/Documents/TR/מיפוי מרכז/GIS/BACKGROUND/צמתים מרומזרים.zip,M:\\Tnua\\3119\\Documents\\TR\\מיפוי מרכז\\GIS\\MERGED\\רמזורי נתיבי איילון- סופי.gpkg|layername=רמזורי נתיבי איילון- סופי",
    "CLUSTER_ID_2": 2348,
    "CLUSTER_SIZE_2": 2,
    "Existing bus lane": 0,
    "Planned bus lane": 1,
    "Interurban bus lane": 0,
    "Additional bus lanes": 0,
    "Metro line": 0,
    "FUNC_min": 46.0,
    "Road Hierachy": "דרך עורקית",
    "Terminals": 0,
    "TUEDEP_sum": 141.0,
    "Rail-affected intersection": 0,
    "lrt-station affected intersection": 0,
    "LRT- status": null,
    "LRT": 0,
    "metro line station - affected intersection": 0,
    "BRT - status": null,
    "BRT": "0",
    "No. of Bus Lane Directions": 2.0,
    "NODE_ID": null,
    "node_dist_m": null,
    "entering_volume": null,
    "n_incoming_links": null,
    "nearest_street": null,
    "daily_bus_passes": 141.0,
    "n_distinct_lines": 8,
    "Rail-affected intersection (network)": 0,
    "lrt-station affected intersection (network)": 0,
    "metro line station - affected intersection (network)": 0,
    "Terminals (network)": 0,
    "score_nataz": 1000,
    "score_metro": 0,
    "score_brt": 0,
    "score_terminal": 0,
    "score_rail": 0,
    "score_lrt": 0,
    "score_bus_passes": 141.0,
    "Bus Lane Directions (capped at 2)": 2.0,
    "score_directions": 500.0,
    "score_road": 1800.0,
    "score_entering_volume": 0.0,
    "TOTAL_SCORE": 3441.0,
    "Vx_neighbors_included": "",
    "junction_name": "חנה ומיכאל לוין - שמואל שרירא",
    "streets": "חנה ומיכאל לוין / שמואל שרירא",
    "city_clean": "ראשון לציון",
    "status_clean": "קיים",
    "nearest_brt_fid": 2479,
    "nearest_brt_name": "יגאל אלון - ירושלים",
    "nearest_brt_line": "חום (שלב א')",
    "dist_to_nearest_brt_m": 197.9,
    "n_brt_within_200m": 1,
    "brt_fids_within_200m": "2479"
   },
   "geometry": {
    "type": "Point",
    "coordinates": [
     183342.7895,
     652309.1818
    ]
   }
  },
  {
   "type": "Feature",
   "properties": {
    "fid": 2493,
    "DISTRICODE": null,
    "DISTRICT": null,
    "X": 181921.0,
    "Y": 653309.0,
    "DOMAIN": null,
    "JUNCTION": null,
    "STREETROAD": null,
    "CITY": null,
    "CITYCODE": null,
    "TRAFAUTH": null,
    "AUTHCODE": null,
    "AYALON Code": 11140.0,
    "ID": 1670.0,
    "רשות מקומית": "ראשון לציון",
    "רשות תמרור": "ראשון לציון",
    "Mantam": 0,
    "Status": "קיים",
    "name": "צבי פרנק - פינסקר",
    "main street": "צבי פרנק",
    "stree_1": "יהודה לייב פינסקר",
    "stree_2": null,
    "street_3": null,
    "street_4": null,
    "nataz": "לא",
    "fast2city": "לא",
    "blue_line": "לא",
    "red_line": "לא",
    "green_line": "לא",
    "purple_line": "לא",
    "brown_line": "לא",
    "DAN_BICYCLE": "לא",
    "no_project": "כן",
    "Metronit": "לא",
    "Auth Code": null,
    "Fast2City Code": null,
    "DESCRIPTIO": "צבי פרנק - פינסקר",
    "Green_Wave_ID": null,
    "תאריך עדכון אחרון": "16/02/2025",
    "CLUSTER_ID": 710.0,
    "CLUSTER_SIZE": 1.0,
    "layer": "רמזורי נתיבי איילון- סופי",
    "path": "M:\\Tnua\\3119\\Documents\\TR\\מיפוי מרכז\\GIS\\MERGED\\רמזורי נתיבי איילון- סופי.gpkg|layername=רמזורי נתיבי איילון- סופי",
    "CLUSTER_ID_2": 3295,
    "CLUSTER_SIZE_2": 1,
    "Existing bus lane": 0,
    "Planned bus lane": 1,
    "Interurban bus lane": 0,
    "Additional bus lanes": 0,
    "Metro line": 0,
    "FUNC_min": 46.0,
    "Road Hierachy": "דרך עורקית",
    "Terminals": 0,
    "TUEDEP_sum": 299.0,
    "Rail-affected intersection": 0,
    "lrt-station affected intersection": 0,
    "LRT- status": null,
    "LRT": 0,
    "metro line station - affected intersection": 0,
    "BRT - status": null,
    "BRT": "0",
    "No. of Bus Lane Directions": 2.0,
    "NODE_ID": 150210.0,
    "node_dist_m": 0.0,
    "entering_volume": 2242.28026,
    "n_incoming_links": 3.0,
    "nearest_street": null,
    "daily_bus_passes": 299.0,
    "n_distinct_lines": 14,
    "Rail-affected intersection (network)": 0,
    "lrt-station affected intersection (network)": 0,
    "metro line station - affected intersection (network)": 0,
    "Terminals (network)": 0,
    "score_nataz": 1000,
    "score_metro": 0,
    "score_brt": 0,
    "score_terminal": 0,
    "score_rail": 0,
    "score_lrt": 0,
    "score_bus_passes": 299.0,
    "Bus Lane Directions (capped at 2)": 2.0,
    "score_directions": 500.0,
    "score_road": 1800.0,
    "score_entering_volume": 89.6912104,
    "TOTAL_SCORE": 3688.6912104,
    "Vx_neighbors_included": "FID=2469 (r=92m, score=4614)",
    "junction_name": "צבי פרנק - פינסקר",
    "streets": "צבי פרנק / יהודה לייב פינסקר",
    "city_clean": "",
    "status_clean": "קיים",
    "nearest_brt_fid": 2469,
    "nearest_brt_name": "הרצל פרנק צבי",
    "nearest_brt_line": "כחול",
    "dist_to_nearest_brt_m": 84.5,
    "n_brt_within_200m": 2,
    "brt_fids_within_200m": "2469, 2470"
   },
   "geometry": {
    "type": "Point",
    "coordinates": [
     181921.0,
     653309.0
    ]
   }
  },
  {
   "type": "Feature",
   "properties": {
    "fid": 2494,
    "DISTRICODE": null,
    "DISTRICT": null,
    "X": 182252.0,
    "Y": 654741.0,
    "DOMAIN": null,
    "JUNCTION": null,
    "STREETROAD": null,
    "CITY": null,
    "CITYCODE": null,
    "TRAFAUTH": null,
    "AUTHCODE": null,
    "AYALON Code": 11141.0,
    "ID": 1671.0,
    "רשות מקומית": "ראשון לציון",
    "רשות תמרור": "ראשון לציון",
    "Mantam": 0,
    "Status": "בתכנון",
    "name": "דרך המכבים - התעשיין",
    "main street": "דרך המכבים",
    "stree_1": "התעשיין",
    "stree_2": null,
    "street_3": null,
    "street_4": null,
    "nataz": "לא",
    "fast2city": "לא",
    "blue_line": "לא",
    "red_line": "לא",
    "green_line": "לא",
    "purple_line": "לא",
    "brown_line": "לא",
    "DAN_BICYCLE": "לא",
    "no_project": "כן",
    "Metronit": "לא",
    "Auth Code": null,
    "Fast2City Code": null,
    "DESCRIPTIO": "דרך המכבים - התעשיין",
    "Green_Wave_ID": null,
    "תאריך עדכון אחרון": "16/02/2025",
    "CLUSTER_ID": 711.0,
    "CLUSTER_SIZE": 1.0,
    "layer": "רמזורי נתיבי איילון- סופי",
    "path": "M:\\Tnua\\3119\\Documents\\TR\\מיפוי מרכז\\GIS\\MERGED\\רמזורי נתיבי איילון- סופי.gpkg|layername=רמזורי נתיבי איילון- סופי",
    "CLUSTER_ID_2": 3296,
    "CLUSTER_SIZE_2": 1,
    "Existing bus lane": 1,
    "Planned bus lane": 0,
    "Interurban bus lane": 0,
    "Additional bus lanes": 0,
    "Metro line": 0,
    "FUNC_min": 43.0,
    "Road Hierachy": "דרך אזורית",
    "Terminals": 0,
    "TUEDEP_sum": 1044.0,
    "Rail-affected intersection": 0,
    "lrt-station affected intersection": 0,
    "LRT- status": null,
    "LRT": 0,
    "metro line station - affected intersection": 0,
    "BRT - status": null,
    "BRT": "0",
    "No. of Bus Lane Directions": 2.0,
    "NODE_ID": 150650.0,
    "node_dist_m": 0.0,
    "entering_volume": 2800.558904,
    "n_incoming_links": 3.0,
    "nearest_street": "דרך המכבים",
    "daily_bus_passes": 1044.0,
    "n_distinct_lines": 49,
    "Rail-affected intersection (network)": 0,
    "lrt-station affected intersection (network)": 0,
    "metro line station - affected intersection (network)": 0,
    "Terminals (network)": 0,
    "score_nataz": 2000,
    "score_metro": 0,
    "score_brt": 0,
    "score_terminal": 0,
    "score_rail": 0,
    "score_lrt": 0,
    "score_bus_passes": 1044.0,
    "Bus Lane Directions (capped at 2)": 2.0,
    "score_directions": 500.0,
    "score_road": 1800.0,
    "score_entering_volume": 112.02235616,
    "TOTAL_SCORE": 5456.02235616,
    "Vx_neighbors_included": "",
    "junction_name": "דרך המכבים - התעשיין",
    "streets": "דרך המכבים / התעשיין",
    "city_clean": "",
    "status_clean": "בתכנון",
    "nearest_brt_fid": 2473,
    "nearest_brt_name": "דרך המכבים טוליפמן",
    "nearest_brt_line": "כחול",
    "dist_to_nearest_brt_m": 181.7,
    "n_brt_within_200m": 1,
    "brt_fids_within_200m": "2473"
   },
   "geometry": {
    "type": "Point",
    "coordinates": [
     182252.0,
     654741.0
    ]
   }
  },
  {
   "type": "Feature",
   "properties": {
    "fid": 2529,
    "DISTRICODE": 4.0,
    "DISTRICT": "מרכז,",
    "X": 181629.6398,
    "Y": 646686.6495,
    "DOMAIN": "עירוני,",
    "JUNCTION": ",",
    "STREETROAD": "המדע / חיים פקריס / מאיר וייסגל,",
    "CITY": "רחובות,",
    "CITYCODE": 8400.0,
    "TRAFAUTH": ",",
    "AUTHCODE": null,
    "AYALON Code": 12033.0,
    "ID": 794.0,
    "רשות מקומית": ",רחובות",
    "רשות תמרור": ",רחובות",
    "Mantam": 0,
    "Status": ",קיים",
    "name": ",המדע - פנחס ספיר - פקריס",
    "main street": ",המדע",
    "stree_1": ",פנחס ספיר",
    "stree_2": ",פרופ' חיים פקריס",
    "street_3": ",",
    "street_4": ",",
    "nataz": ",לא",
    "fast2city": ",לא",
    "blue_line": ",לא",
    "red_line": ",לא",
    "green_line": ",לא",
    "purple_line": ",לא",
    "brown_line": ",לא",
    "DAN_BICYCLE": ",לא",
    "no_project": ",כן",
    "Metronit": ",לא",
    "Auth Code": ",",
    "Fast2City Code": ",",
    "DESCRIPTIO": ",המדע - פנחס ספיר - פקריס",
    "Green_Wave_ID": null,
    "תאריך עדכון אחרון": "06/04/2021 00:00",
    "CLUSTER_ID": 746.0,
    "CLUSTER_SIZE": 1.0,
    "layer": "צמתים מרומזרים — TRAFFIC_LIGHT_JNCTN.shp,רמזורי נתיבי איילון- סופי",
    "path": "/vsizip/M:/Tnua/3119/Documents/TR/מיפוי מרכז/GIS/BACKGROUND/צמתים מרומזרים.zip,M:\\Tnua\\3119\\Documents\\TR\\מיפוי מרכז\\GIS\\MERGED\\רמזורי נתיבי איילון- סופי.gpkg|layername=רמזורי נתיבי איילון- סופי",
    "CLUSTER_ID_2": 2456,
    "CLUSTER_SIZE_2": 2,
    "Existing bus lane": 0,
    "Planned bus lane": 1,
    "Interurban bus lane": 0,
    "Additional bus lanes": 0,
    "Metro line": 0,
    "FUNC_min": 46.0,
    "Road Hierachy": "דרך עורקית",
    "Terminals": 0,
    "TUEDEP_sum": 325.0,
    "Rail-affected intersection": 1,
    "lrt-station affected intersection": 0,
    "LRT- status": null,
    "LRT": 0,
    "metro line station - affected intersection": 1,
    "BRT - status": null,
    "BRT": "0",
    "No. of Bus Lane Directions": 2.0,
    "NODE_ID": 161014.0,
    "node_dist_m": 0.0,
    "entering_volume": 1802.026166,
    "n_incoming_links": 4.0,
    "nearest_street": null,
    "daily_bus_passes": 325.0,
    "n_distinct_lines": 28,
    "Rail-affected intersection (network)": 1,
    "lrt-station affected intersection (network)": 0,
    "metro line station - affected intersection (network)": 1,
    "Terminals (network)": 0,
    "score_nataz": 1000,
    "score_metro": 4000,
    "score_brt": 0,
    "score_terminal": 0,
    "score_rail": 8000,
    "score_lrt": 0,
    "score_bus_passes": 325.0,
    "Bus Lane Directions (capped at 2)": 2.0,
    "score_directions": 500.0,
    "score_road": 1800.0,
    "score_entering_volume": 72.08104664,
    "TOTAL_SCORE": 15697.08104664,
    "Vx_neighbors_included": "",
    "junction_name": "המדע - פנחס ספיר - פקריס",
    "streets": "המדע / פנחס ספיר / פרופ' חיים פקריס",
    "city_clean": "רחובות",
    "status_clean": "קיים",
    "nearest_brt_fid": 2516,
    "nearest_brt_name": "הרצל - אצ\"ל",
    "nearest_brt_line": "כחול",
    "dist_to_nearest_brt_m": 177.4,
    "n_brt_within_200m": 1,
    "brt_fids_within_200m": "2516"
   },
   "geometry": {
    "type": "Point",
    "coordinates": [
     181629.6398,
     646686.6495
    ]
   }
  }
 ]
}